[
    {
        "Altitude(m)": 622200.0760857641,
        "Argument of Periapsis(deg)": 0.0,
        "Eccentricity": 0.0,
        "Inclination(deg)": 60.0,
        "Latitude(deg)": -52.16245234986317,
        "Longitude(deg)": 82.36079191658096,
        "Mean Anomaly(deg)": -65.45449999999998,
        "RAAN(deg)": 229.99999999999997,
        "Satellite Name": "Test1 1030",
        "Satellite Number": 1030,
        "Semi-Major Axis(m)": 6980739.136638005,
        "Time(s)": 0
    },
    {
        "Altitude(m)": 622058.2435908112,
        "Argument of Periapsis(deg)": 0.00010418945913296404,
        "Eccentricity": 0.0,
        "Inclination(deg)": 60.0,
        "Latitude(deg)": -51.79920159232899,
        "Longitude(deg)": 83.12884782942218,
        "Mean Anomaly(deg)": -64.83439385453813,
        "RAAN(deg)": 229.99957995086024,
        "Satellite Name": "Test1 1030",
        "Satellite Number": 1030,
        "Semi-Major Axis(m)": 6980739.136638005,
        "Time(s)": 10
    }
]